P/2011 P1 (McNaught),e,5.6610,4.2368,349.0024,7.463384,0.0483393,0.32778244,202.7354,01/19.0/2022,2000,g  9.0,4.0
# From MPC 77806
P/2011 Q3 (McNaught),e,6.0574,32.0264,310.9935,4.971634,0.0889110,0.53289248,341.1156,01/19.0/2022,2000,g 13.5,4.0
# From MPC 98558
P/2011 S1 (Gibbs),e,2.6859,218.8537,192.4381,8.583704,0.0391915,0.20101916,106.4710,01/19.0/2022,2000,g  8.0,4.0
# From MPC 79022
P/2011 UA134 (Spacewatch-PANSTARRS),e,10.4406,40.4018,32.4097,5.608096,0.0742131,0.62951948,276.4770,01/19.0/2022,2000,g 17.5,4.0
# From MPC 77406
P/2011 V1 (Boattini),e,7.3751,46.8068,269.3371,3.856333,0.1301495,0.55041369,156.7857,01/19.0/2022,2000,g 15.5,4.0
# From MPC 82718
P/2011 W1 (PANSTARRS),e,3.7185,161.7866,282.7499,4.663209,0.0978761,0.28761289,358.0705,01/19.0/2022,2000,g 11.5,4.0
# From MPC 79342
P/2011 Y2 (Boattini),e,6.3737,309.3524,131.9192,6.239166,0.0632433,0.70979719,228.1809,01/19.0/2022,2000,g 15.0,4.0
# From MPC 94669
P/2012 B1 (PANSTARRS),e,7.6110,36.2151,162.4845,6.530682,0.0590563,0.40904502,183.6771,01/19.0/2022,2000,g  9.0,4.0
# From MPC 78590
P/2012 C3 (PANSTARRS),e,9.0920,135.3677,344.9542,9.748681,0.0323806,0.63011148,359.9758,10/06.0/2011,2000,g 13.0,4.0
# From MPC 84931
P/2012 F2 (PANSTARRS),e,14.7089,227.0128,33.3157,6.332657,0.0618479,0.54176540,198.1998,01/19.0/2022,2000,g 12.0,4.0
# From MPC 79344
P/2012 G1 (PANSTARRS),e,11.6925,282.5440,286.1149,4.172871,0.1156250,0.38072240,359.9500,06/01.0/2012,2000,g 15.0,4.0
# From MPC 80898
P/2012 K3 (Gibbs),e,13.1933,125.8131,172.2215,3.626915,0.1426915,0.42307649,126.3657,01/19.0/2022,2000,g 15.0,4.0
# From MPC 88326
P/2012 NJ (La Sagra),e,84.6426,315.5562,338.3669,8.463626,0.0400285,0.84700259,140.3262,01/19.0/2022,2000,g 14.5,4.0
# From MPC 81470
P/2012 O1 (McNaught),e,7.4295,91.9612,238.2757,3.541174,0.1479051,0.59452433,155.7826,01/19.0/2022,2000,g 17.5,4.0
# From MPC 80899
P/2012 O2 (McNaught),e,24.4808,120.6832,183.4579,3.625002,0.1428045,0.53247207,141.2205,01/19.0/2022,2000,g 17.0,4.0
# From MPC 82720
P/2012 O3 (McNaught),e,16.6160,336.4137,344.7549,4.571902,0.1008228,0.64698457,346.8149,01/19.0/2022,2000,g 16.5,4.0
# From MPC 82320
P/2012 T2 (PANSTARRS),e,12.5623,73.7171,310.5486,5.732336,0.0718136,0.16178632,229.1816,01/19.0/2022,2000,g 10.0,4.0
# From MPC 80900
P/2012 T3 (PANSTARRS),e,9.5642,114.3940,195.5034,6.151242,0.0646041,0.61711234,229.1004,01/19.0/2022,2000,g 15.0,4.0
# From MPC 82720
P/2012 U2 (PANSTARRS),e,10.7574,185.3121,228.2472,7.136274,0.0517007,0.49907309,173.4929,01/19.0/2022,2000,g 12.5,4.0
# From MPC 84024
P/2012 US27 (Siding Spring),e,39.3563,49.1904,0.8059,5.166046,0.0839395,0.64792805,275.5124,01/19.0/2022,2000,g 13.5,4.0
# From MPC 82721
P/2012 WA34 (Lemmon-PANSTARRS),e,6.0780,93.7408,355.8628,4.704307,0.0965963,0.34578802,308.5202,01/19.0/2022,2000,g 13.5,4.0
# From MPC 82721
P/2013 AL76 (Catalina),e,144.8539,145.9929,27.0663,6.497277,0.0595123,0.68631061,198.2691,01/19.0/2022,2000,g 16.0,4.0
# From MPC 91612
P/2013 G1 (Kowalski),e,5.4616,221.3529,51.4985,6.893020,0.0544615,0.51217148,161.2046,01/19.0/2022,2000,g 11.0,4.0
# From MPC 84025
P/2013 G4 (PANSTARRS),e,5.9163,339.6383,214.6545,4.440409,0.1053343,0.40945577,344.0526,01/19.0/2022,2000,g 15.0,4.0
# From MPC 91613
P/2013 J2 (McNaught),e,15.5238,289.3936,37.8001,6.222816,0.0634927,0.65762536,194.5404,01/19.0/2022,2000,g 13.0,4.0
# From MPC 86229
P/2013 N3 (PANSTARRS),e,2.1740,17.4649,323.9312,7.392632,0.0490349,0.59329546,141.8430,01/19.0/2022,2000,g 13.0,4.0
# From MPC 85834
P/2013 N5 (PANSTARRS),e,23.4517,187.1565,176.9141,6.797716,0.0556108,0.73237744,173.4967,01/19.0/2022,2000,g 17.0,4.0
# From MPC 85834
P/2013 P1 (PANSTARRS),e,18.7251,160.5905,138.2083,8.576102,0.0392436,0.60544988,127.3555,01/19.0/2022,2000,g 12.0,4.0
# From MPC 94671
P/2013 R3 (Catalina-PANSTARRS),e,0.8651,341.9949,11.2124,3.033145,0.1865797,0.27542613,212.4030,01/19.0/2022,2000,g 14.0,4.0
# From unp
P/2013 R3-A (Catalina-PANSTARRS),e,0.8645,341.9618,11.2514,3.033002,0.1865928,0.27539573,212.4407,01/19.0/2022,2000,g  9.0,4.0
# From MPEC 2015-M77
P/2013 R3-B (Catalina-PANSTARRS),e,0.8657,342.0177,11.1863,3.033222,0.1865726,0.27544109,212.3828,01/19.0/2022,2000,g  9.0,4.0
# From MPC 85835
P/2013 T1 (PANSTARRS),e,24.2971,10.0806,346.1265,5.858830,0.0695005,0.62415675,214.6978,01/19.0/2022,2000,g 16.5,4.0
# From MPC 86643
P/2013 T2 (Schwartz),e,9.4573,0.8017,345.5450,3.490995,0.1511055,0.50122608,117.8958,01/19.0/2022,2000,g 16.0,4.0
# From MPC 91613
P/2013 W1 (PANSTARRS),e,4.6956,117.8451,1.2601,3.488871,0.1512435,0.59273036,74.9795,01/19.0/2022,2000,g 17.5,4.0
# From MPC101095
P/2013 YG46 (Spacewatch),e,7.8567,48.8394,242.5678,3.275207,0.1662823,0.45480510,301.4323,01/19.0/2022,2000,g 10.0,4.0
# From MPC 89728
P/2014 A2 (Hill),e,24.5369,106.6299,356.1718,5.927367,0.0682985,0.64534680,206.3804,01/19.0/2022,2000,g 15.0,4.0
# From MPC 92981
P/2014 A3 (PANSTARRS),e,13.7050,229.9952,213.8217,4.615577,0.0993951,0.24730890,314.6153,01/19.0/2022,2000,g 12.0,4.0
# From MPEC 2021-Y10
C/2014 B1 (Schwartz),e,28.4114,161.4223,345.6785,4493,0.0000033,0.99787515,0.0000,09/06.9516/2017,2000,g  4.0,4.0
# From MPC102095
P/2014 C1 (TOTAS),e,2.6912,167.7848,23.9028,3.036162,0.1863017,0.44934673,188.3272,01/19.0/2022,2000,g 15.5,4.0
# From MPC 94280
C/2014 F3 (Sheppard-Trujillo),e,6.5820,326.6950,3.8843,15.02801,0.0169181,0.62126158,4.0957,01/19.0/2022,2000,g  6.0,4.0
# From MPC 98560
P/2014 L2 (NEOWISE),e,5.1998,149.3472,182.6859,6.304190,0.0622673,0.64821552,170.5557,01/19.0/2022,2000,g 12.0,4.0
# From MPC 90769
P/2014 L3 (Hill),e,6.2740,115.4798,178.6835,8.173639,0.0421775,0.77338190,116.3464,01/19.0/2022,2000,g 16.0,4.0
# From MPC 91614
P/2014 M4 (PANSTARRS),e,3.3390,263.2245,147.9806,5.871248,0.0692801,0.59488225,178.7656,01/19.0/2022,2000,g 15.0,4.0
# From MPC103844
P/2014 MG4 (Spacewatch-PANSTARRS),e,9.3698,311.7344,299.0830,5.012630,0.0878225,0.25924021,275.4776,01/19.0/2022,2000,g  9.5,4.0
# From MPC 98560
P/2014 O3 (PANSTARRS),e,7.8017,87.6446,204.7143,7.570482,0.0473172,0.38541959,133.9361,01/19.0/2022,2000,g 10.5,4.0
# From MPEC 2021-P47
C/2014 OE4 (PANSTARRS),h,12/12.9327/2016,81.2715,240.4346,65.8970,1.003133,6.250689,2000,11.0,2.0
# From MPEC 2021-Y10
C/2014 OG392 (PANSTARRS),e,9.0328,145.7944,254.1160,12.23921,0.0230183,0.18544841,1.1466,01/19.0/2022,2000,g  6.0,4.0
# From MPC 91615
P/2014 R5 (Lemmon-PANSTARRS),e,1.0883,126.5607,213.7416,4.056839,0.1206208,0.41386341,334.4311,01/19.0/2022,2000,g 15.0,4.0
# From MPC 91616
P/2014 U4 (PANSTARRS),e,6.4291,11.8875,347.7763,3.507076,0.1500674,0.46493010,50.9375,01/19.0/2022,2000,g 18.0,4.0
# From MPEC 2021-Y10
C/2014 UN271 (Bernardinelli-Bernstein),e,95.4362,189.9107,326.3338,15959,0.0000005,0.99931464,0.0000,01/25.4609/2031,2000,g  2.5,3.2
# From MPC 95211
P/2014 V1 (PANSTARRS),e,22.5266,166.2002,177.6129,5.480177,0.0768267,0.53448273,195.9401,01/19.0/2022,2000,g 14.0,4.0
# From MPC 93586
P/2014 W1 (PANSTARRS),e,8.8374,246.2436,152.1832,4.463552,0.1045161,0.38898042,286.8787,01/19.0/2022,2000,g 15.5,4.0
# From MPC105542
P/2014 W4 (PANSTARRS),e,15.2793,33.3731,67.6931,6.593379,0.0582160,0.35254885,128.7960,01/19.0/2022,2000,g 11.0,4.0
# From MPC 94281
P/2014 X1 (Elenin),e,26.0262,61.5328,33.9114,6.207211,0.0637323,0.70895412,164.1546,01/19.0/2022,2000,g 15.0,4.0
# From MPC 92275
P/2015 A3 (PANSTARRS),e,172.5349,277.2396,249.3436,7.811532,0.0451440,0.85075412,114.1197,01/19.0/2022,2000,g 20.0,4.0
# From MPC 99270
P/2015 B1 (PANSTARRS),e,18.0416,352.9619,188.8964,9.495495,0.0336843,0.36720917,78.1654,01/19.0/2022,2000,g  8.5,4.0
# From MPC109141
P/2015 B4 (Lemmon-PANSTARRS),e,1.7611,266.0354,227.3700,8.524119,0.0396032,0.56014028,100.6857,01/19.0/2022,2000,g 11.0,4.0
# From MPC101096
P/2015 C1 (TOTAS-Gibbs),e,13.9038,348.8036,178.2087,6.579367,0.0584020,0.56041036,143.7460,01/19.0/2022,2000,g 12.5,4.0
# From MPC109141
P/2015 D5 (Kowalski),e,20.5163,74.0631,39.7632,8.961557,0.0367391,0.48919354,104.7433,01/19.0/2022,2000,g  9.0,4.0
# From MPC 96866
P/2015 D6 (Lemmon-PANSTARRS),e,20.2018,45.9308,125.0982,7.140162,0.0516585,0.36137797,123.7570,01/19.0/2022,2000,g 10.5,4.0
# From MPEC 2021-P47
C/2015 ER61 (PANSTARRS),e,6.3245,235.0647,68.4744,530.1187,0.0000808,0.99802511,0.0000,05/10.4194/2017,2000,g 11.0,2.0
# From MPEC 2018-BF5
C/2015 E61-B (PANSTARRS),e,6.3261,235.0998,68.5639,1726,0.0000137,0.99939247,0.0000,05/10.3974/2017,2000,g 13.5,2.0
# From MPEC 2021-P47
P/2015 HG16 (PANSTARRS),e,18.7780,58.1363,47.7033,4.755332,0.0950458,0.35240457,264.2106,01/19.0/2022,2000,g 12.5,4.0
# From MPC 95213
P/2015 K5 (PANSTARRS),e,39.9449,134.1847,106.3556,6.724120,0.0565263,0.55261010,136.8855,01/19.0/2022,2000,g 13.5,4.0
# From MPC107684
P/2015 M2 (PANSTARRS),e,3.9712,86.5862,225.7638,7.236480,0.0506306,0.18058643,117.4821,01/19.0/2022,2000,g  8.5,4.0
# From MPEC 2021-P47
C/2015 O1 (PANSTARRS),h,02/20.0095/2018,127.2088,299.8454,89.6000,1.001527,3.725757,2000,6.5,4.0
# From MPC 99819
P/2015 P4 (PANSTARRS),e,8.7173,104.7273,280.5985,6.047675,0.0662707,0.58531826,145.0901,01/19.0/2022,2000,g 14.0,4.0
# From MPC102952
P/2015 PD229 (Cameron-ISON),e,2.0261,342.6380,352.5756,7.187380,0.0511503,0.32805214,120.0353,01/19.0/2022,2000,g 11.5,2.0
# From MPC 96867
P/2015 Q2 (Pimentel),e,146.5256,228.4791,244.5761,7.351602,0.0494460,0.75056969,115.0570,01/19.0/2022,2000,g 15.5,4.0
# From MPC 98562
P/2015 R1 (PANSTARRS),e,22.6886,48.3706,300.5086,5.880177,0.0691224,0.63436832,165.5682,01/19.0/2022,2000,g 14.0,4.0
# From MPC 95734
P/2015 R2 (PANSTARRS),e,15.4848,168.5968,149.8131,4.486955,0.1036995,0.45291478,249.9677,01/19.0/2022,2000,g 14.5,4.0
# From MPC117068
C/2015 T2 (PANSTARRS),e,124.5620,50.9917,30.6656,1755,0.0000134,0.99604682,0.0000,05/18.2086/2017,2000,g  8.0,4.0
# From MPC 96280
P/2015 T3 (PANSTARRS),e,13.0937,120.5019,178.6330,4.326181,0.1095335,0.50818108,359.9227,12/21.0/2014,2000,g 14.0,4.0
# From MPC102953
P/2015 TO19 (Lemmon-PANSTARRS),e,6.4997,321.6450,89.1245,4.553996,0.1014180,0.35878083,217.5307,01/19.0/2022,2000,g 14.0,4.0
# From MPC110080
